SBIRS GEO-6 (USA 336)   
1 53355U 22092A   26176.26737140 -.00000281  00000+0  00000+0 0  9998
2 53355   3.2435 317.6312 0002147 128.6117  62.4220  1.00272140 14315
EUTELSAT KONNECT VHTS   
1 53765U 22110A   26175.31356638  .00000025  00000+0  00000+0 0  9993
2 53765   0.0620 101.3297 0002806 340.6216 306.1073  1.00275763  6903
ZHONGXING-1E            
1 53813U 22112A   26176.18460741 -.00000140  00000+0  00000+0 0  9995
2 53813   0.0434 177.2232 0000320 152.7761  91.2027  1.00272192 13921
SES-20                  
1 53960U 22123A   26175.19760890 -.00000093  00000+0  00000+0 0  9995
2 53960   0.0251  65.9784 0002053  31.5385 142.8634  1.00269292 13606
SES-21                  
1 53961U 22123B   26174.43155243  .00000000  00000+0  00000+0 0  9999
2 53961   0.0387  19.7009 0001007  64.8583 211.4828  1.00271938  7275
GALAXY 33 (G-33)        
1 54026U 22128A   26176.26829644  .00000089  00000+0  00000+0 0  9990
2 54026   0.0144 351.0105 0002024  98.0974 147.8897  1.00270919 13825
GALAXY 34 (G-34)        
1 54027U 22128B   26175.57264679  .00000066  00000+0  00000+0 0  9990
2 54027   0.0145   9.2904 0002066  88.7541 251.8415  1.00277187 13981
ANGOSAT 2               
1 54033U 22131A   26175.31755307  .00000143  00000+0  00000+0 0  9992
2 54033   0.0306 105.9233 0000621 352.8704 310.9921  1.00272115 13544
EUTELSAT HOTBIRD 13F    
1 54048U 22134A   26176.17108735  .00000097  00000+0  00000+0 0  9991
2 54048   0.0466 293.2237 0002121  71.2580 343.4414  1.00271103 13457
LDPE-2                  
1 54219U 22144A   26176.33697905  .00000119  00000+0  00000+0 0  9997
2 54219   5.6327  63.5890 0002021  92.5469  88.8744  1.00536954 11922
EUTELSAT HOTBIRD 13G    
1 54225U 22146A   26175.36919756  .00000095  00000+0  00000+0 0  9992
2 54225   0.0504 222.3782 0002120 311.5150 244.5443  1.00273684  7538
ZHONGXING-19            
1 54230U 22148A   26176.27213808 -.00000072  00000+0  00000+0 0  9992
2 54230   0.0284  77.2518 0002778  35.4890  61.8418  1.00272599 13460
GALAXY 31 (G-31)        
1 54243U 22153A   26176.12475458  .00000000  00000+0  00000+0 0  9997
2 54243   0.0172   2.5644 0001511  93.8237 100.7977  1.00272384  7219
GALAXY 32 (G-32)        
1 54244U 22153B   26175.22367264 -.00000167  00000+0  00000+0 0  9998
2 54244   0.0097   2.1596 0002133  41.7877 217.9513  1.00271380 13210
EUTELSAT 10B            
1 54259U 22157A   26175.38621325  .00000075  00000+0  00000+0 0  9993
2 54259   0.0630  97.8964 0001802   7.0175 316.6249  1.00268320 13096
GALAXY 35 (G-35)        
1 54741U 22170A   26176.15010825 -.00000153  00000+0  00000+0 0  9995
2 54741   0.0146 309.3921 0002120 142.0946 142.7336  1.00271509 12972
GALAXY 36 (G-36)        
1 54742U 22170B   26176.15088826 -.00000176  00000+0  00000+0 0  9997
2 54742   0.0343 132.5365 0002829 314.9706 151.1100  1.00271784 12855
METEOSAT-12 (MTG-I1)    
1 54743U 22170C   26176.23516927  .00000002  00000+0  00000+0 0  9992
2 54743   0.7474  24.2867 0003592  71.3838 262.0180  1.00275041 13053
SHIJIAN-23 (SJ-23)      
1 55131U 23002A   26175.77820198 -.00000281  00000+0  00000+0 0  9995
2 55131   3.7373  78.2242 0003749 278.5821 339.3351  1.00086365 12583
APSTAR-6E               
1 55239U 23005A   26176.26633140 -.00000308  00000+0  00000+0 0  9991
2 55239   0.0229 257.9618 0000503 279.0565 326.2501  1.00272592 18779
USA 342                 
1 55263U 23008A   26170.70365845  .00000000  00000+0  00000+0 0  9996
2 55263   0.0057  73.3519 0000125 107.0449   4.6843  1.00267812 12540
LDPE-3A                 
1 55264U 23008B   26176.32633252  .00000071  00000+0  00000+0 0  9999
2 55264   2.3692  81.5725 0001440  51.6395 115.7184  0.99147846 11896
ELEKTRO-L 4             
1 55506U 23016A   26175.78133853 -.00000049  00000+0  00000+0 0  9994
2 55506   0.0809 152.6579 0000948  28.1439 179.1927  1.00271273 12409
AMAZONAS NEXUS          
1 55508U 23017A   26174.99114264 -.00000276  00000+0  00000+0 0  9996
2 55508   0.0361  39.7182 0005035  35.9228 132.3280  1.00273041  7113
ZHONGXING-26            
1 55686U 23023A   26176.33587515 -.00000344  00000+0  00000+0 0  9999
2 55686   0.0671  70.6866 0003731  19.3757  69.4216  1.00267516 12318
LUCH-5X (OLYMP-K 2)     
1 55841U 23031A   26175.75306257  .00000042  00000+0  00000+0 0  9992
2 55841   0.0345  77.9779 0000949 147.7134  20.3023  1.00270710 12014
GAOFEN-13 02            
1 55912U 23036A   26176.26919140 -.00000210  00000+0  00000+0 0  9992
2 55912   1.0219   2.1756 0003812 339.4823 176.9113  1.00269653 12175
SES-18                  
1 55970U 23038A   26175.19749707 -.00000094  00000+0  00000+0 0  9999
2 55970   0.0410 275.0937 0000513 233.5125  91.7362  1.00271139 12179
SES-19                  
1 55971U 23038B   26176.28441846  .00000098  00000+0  00000+0 0  9997
2 55971   0.0176 315.8434 0001929 139.2636 145.7893  1.00271954 12179
INTELSAT 40E (IS-40E)   
1 56174U 23052A   26175.33100118  .00000000  00000+0  00000+0 0  9991
2 56174   0.0200  27.5285 0002464  97.1687 175.9456  1.00269586 11893
VIASAT-3 F1             
1 56370U 23060A   26175.50928414  .00000000  00000+0  00000+0 0  9994
2 56370   0.0223 357.1841 0001157  93.0700 276.7981  1.00269346 11500
ARCTURUS                
1 56371U 23060B   26174.03636147 -.00000127  00000+0  00000+0 0  9992
2 56371   2.7882  79.8710 0002299 243.3482  34.0386  1.00548738 11519
GS-1                    
1 56372U 23060C   26175.90099932 -.00000217  00000+0  00000+0 0  9995
2 56372   2.7448  79.7441 0003771 280.6706 326.4471  1.00272474  7617
BEIDOU-3 G4             
1 56564U 23066A   26176.26754473 -.00000271  00000+0  00000+0 0  9992
2 56564   0.4777 333.5966 0004728 175.7491   0.4370  1.00271682 11477
ARABSAT-7B (BADR-8)     
1 56757U 23075A   26174.02069251  .00000148  00000+0  00000+0 0  9993
2 56757   0.0766  30.7707 0004373 357.7394 276.1261  1.00271390 11178
NVS-01 (IRNSS-1J)       
1 56759U 23076A   26176.26546472 -.00000323  00000+0  00000+0 0  9995
2 56759   2.1468 243.9686 0002838  14.0924 240.4344  1.00275599 11195
NUSANTARA TIGA (SATRIA) 
1 57045U 23086A   26176.26875807 -.00000225  00000+0  00000+0 0  9993
2 57045   0.0359 357.5208 0002821 347.1824 171.4594  1.00269248  9846
H2SAT (HEINRICH HERTZ)  
1 57213U 23093A   26176.23516927  .00000011  00000+0  00000+0 0  9992
2 57213   0.0480 107.4610 0000842  16.9784 234.2914  1.00269964 10991
SYRACUSE 4B             
1 57214U 23093B   26175.38300657  .00000000  00000+0  00000+0 0  9997
2 57214   0.0239  21.5852 0000267 108.5537 273.8248  1.00269725  7038
JUPITER 3 (ECHOSTAR 24) 
1 57479U 23108A   26174.50986520  .00000000  00000+0  00000+0 0  9999
2 57479   0.0217   7.9584 0001194  82.7820 269.2732  1.00269415 10717
GALAXY 37 (G-37)        
1 57493U 23112A   26175.95392100  .00000057  00000+0  00000+0 0  9997
2 57493   0.0160  31.7708 0002245  61.6422  36.1021  1.00273244 10622
LUDI TANCE-4 01A        
1 57624U 23120A   26175.53240344 -.00000158  00000+0  00000+0 0  9991
2 57624  15.1002 193.7787 0001367  22.2566 337.9252  1.00268303 10620
TJS-10                  
1 58204U 23169A   26175.75912377 -.00000243  00000+0  00000+0 0  9990
2 58204   2.5643  80.4108 0003872 104.3118  93.9179  1.00272332  9614
ZHONGXING-6E            
1 58253U 23172A   26176.33396848 -.00000351  00000+0  00000+0 0  9992
2 58253   0.0381 262.1808 0003089 186.7641  60.2251  1.00267737  9746
YAOGAN-41               
1 58582U 23197A   26176.33552848 -.00000351  00000+0  00000+0 0  9998
2 58582   3.1133 313.2742 0014394 192.9274  11.1692  1.00266850  9409
OVZON-3                 
1 58698U 24003A   26175.46738948  .00000059  00000+0  00000+0 0  9997
2 58698   0.0073  50.9109 0000161  38.7380  50.9160  1.00273967  7529
INSAT-3DS               
1 58990U 24033A   26176.13725274 -.00000146  00000+0  00000+0 0  9996
2 58990   0.0576 102.6872 0001414 340.0050 322.0784  1.00270849 47142
MERAH PUTIH 2           
1 58995U 24035A   26176.04830759 -.00000348  00000+0  00000+0 0  9992
2 58995   0.0178  38.1785 0001430  61.5555 303.7917  1.00270766  8660
TJS-11                  
1 59020U 24037A   26175.97695128 -.00000354  00000+0  00000+0 0  9991
2 59020   4.1886 327.1882 0003383 114.0582 296.2413  1.00272796  8665
HULIANWAN GAOGUI-01 (H*)
1 59069U 24040A   26175.98239164  .00000165  00000+0  00000+0 0  9992
2 59069   0.0677 331.6577 0002770  73.6634 255.0386  1.00270755  7405
EUTELSAT 36D            
1 59346U 24059A   26175.81914640  .00000000  00000+0  00000+0 0  9999
2 59346   0.0231  16.9806 0000556 119.4534 107.2726  1.00270360  8224
PAKSAT-MM1              
1 59915U 24104A   26176.21850447  .00000163  00000+0  00000+0 0  9991
2 59915   0.0381  91.7166 0002831 341.6100 316.8498  1.00270626  7608
ASTRA 1P (SES-24)       
1 60086U 24115A   26175.90625000  .00000129  00000+0  00000+0 0  9996
2 60086   0.0595 340.0652 0000828  24.8630 253.5862  1.00274964  7272
GOES 19                 
1 60133U 24119A   26176.15947413 -.00000239  00000+0  00000+0 0  9999
2 60133   0.0439 171.1940 0000464 331.0701 113.2562  1.00271732  7047
ZHONGXING-3A            
1 60179U 24122A   26176.11730664 -.00000304  00000+0  00000+0 0  9990
2 60179   0.0430 126.8220 0001292 351.8083 298.4362  1.00270231  7383
TURKSAT 6A              
1 60233U 24127A   26174.46587259  .00000000  00000+0  00000+0 0  9994
2 60233   0.0109 151.2306 0001976 338.2753 351.8385  1.00273332  7087
HULIANWAN GAOGUI-02 (H*)
1 60327U 24135A   26176.15044834 -.00000164  00000+0  00000+0 0  9994
2 60327   0.0431 357.3362 0007449  13.5264 109.6933  1.00271607  7587
ZHONGXING-4A            
1 60606U 24151A   26176.04934759 -.00000352  00000+0  00000+0 0  9993
2 60606   1.2936 270.7282 0000452 204.7422 293.7102  1.00270243  6831
HULIANWAN GAOGUI-03 (H*)
1 61503U 24181A   26176.29580285 -.00000231  00000+0  00000+0 0  9997
2 61503   0.0460 358.7008 0001426  93.2864 210.7965  1.00273378  6909
